NORAD_CAT_ID,OBJECT_NAME,OBJECT_TYPE,EPOCH,MEAN_MOTION,ECCENTRICITY,INCLINATION,RA_OF_ASC_NODE,ARG_OF_PERICENTER,MEAN_ANOMALY,BSTAR,MEAN_MOTION_DOT,MEAN_MOTION_DDOT,TLE_LINE0,TLE_LINE1,TLE_LINE2,SEMIMAJOR_AXIS,PERIOD,APOGEE,PERIGEE,DECAYED
52331.0,STARLINK-3889,PAYLOAD,2024-04-30 09:58:14,15.08838113,0.0001531,53.2178,14.0155,80.7089,279.4076,0.00011088,1.477e-05,0.0,0 STARLINK-3889,1 52331U 22045A   24121.41544084  .00001477  00000-0  11088-3 0  9997,2 52331  53.2178  14.0155 0001531  80.7089 279.4076 15.08838113113244,6917.886,95.438,540.81,538.692,0.0
52331.0,STARLINK-3889,PAYLOAD,2024-04-30 22:41:19,15.08845977,0.0001406,53.2183,11.6368,84.209,275.9062,9.1692e-05,1.172e-05,0.0,0 STARLINK-3889,1 52331U 22045A   24121.94535955  .00001172  00000-0  91692-4 0  9994,2 52331  53.2183  11.6368 0001406  84.2090 275.9062 15.08845977113322,6917.862,95.437,540.7,538.754,0.0
52331.0,STARLINK-3889,PAYLOAD,2024-05-01 00:16:42,15.08847885,0.0001438,53.2185,11.3398,84.2611,275.8545,0.00010518,1.387e-05,0.0,0 STARLINK-3889,1 52331U 22045A   24122.01159767  .00001387  00000-0  10518-3 0  9991,2 52331  53.2185  11.3398 0001438  84.2611 275.8545 15.08847885113334,6917.856,95.437,540.716,538.727,0.0
52331.0,STARLINK-3889,PAYLOAD,2024-05-01 09:49:00,15.08846328,0.000145,53.2185,9.5563,87.8474,272.2684,0.00010016,1.307e-05,0.0,0 STARLINK-3889,1 52331U 22045A   24122.40903781  .00001307  00000-0  10016-3 0  9992,2 52331  53.2185   9.5563 0001450  87.8474 272.2684 15.08846328113399,6917.861,95.437,540.729,538.723,0.0
52331.0,STARLINK-3889,PAYLOAD,2024-05-01 22:32:06,15.08838802,0.0001555,53.2187,7.1778,83.3417,276.7752,9.3872e-05,1.206e-05,0.0,0 STARLINK-3889,1 52331U 22045A   24122.93896243  .00001206  00000-0  93872-4 0  9994,2 52331  53.2187   7.1778 0001555  83.3417 276.7752 15.08838802113479,6917.884,95.438,540.825,538.673,0.0
52331.0,STARLINK-3889,PAYLOAD,2024-05-02 09:39:48,15.08841189,0.0001448,53.2183,5.0935,88.5412,271.5746,1.7133e-05,-1.5e-07,0.0,0 STARLINK-3889,1 52331U 22045A   24123.40264133 -.00000015  00000-0  17133-4 0  9998,2 52331  53.2183   5.0935 0001448  88.5412 271.5746 15.08841189113546,6917.877,95.437,540.743,538.74,0.0
52331.0,STARLINK-3889,PAYLOAD,2024-05-03 01:33:38,15.08850337,0.000152,53.2175,2.1179,109.9716,250.144,5.5682e-05,5.99e-06,0.0,0 STARLINK-3889,1 52331U 22045A   24124.06503252  .00000599  00000-0  55682-4 0  9996,2 52331  53.2175   2.1179 0001520 109.9716 250.1440 15.08850337113641,6917.849,95.437,540.765,538.662,0.0
52331.0,STARLINK-3889,PAYLOAD,2024-05-03 22:13:39,15.08849498,0.0001429,53.2185,358.2512,103.1543,256.9609,0.00015495,2.18e-05,0.0,0 STARLINK-3889,1 52331U 22045A   24124.92614747  .00002180  00000-0  15495-3 0  9998,2 52331  53.2185 358.2512 0001429 103.1543 256.9609 15.08849498113771,6917.851,95.437,540.705,538.728,0.0
52331.0,STARLINK-3889,PAYLOAD,2024-05-04 20:29:04,15.08833729,0.0001319,53.2174,354.0887,96.2829,263.8314,-1.4654e-06,-3.11e-06,0.0,0 STARLINK-3889,1 52331U 22045A   24125.85352326 -.00000311  00000-0 -14654-5 0  9997,2 52331  53.2174 354.0887 0001319  96.2829 263.8314 15.08833729113911,6917.9,95.438,540.677,538.852,0.0
52331.0,STARLINK-3889,PAYLOAD,2024-05-04 22:04:27,15.08837452,0.0001262,53.2177,353.7912,93.8733,266.2404,-7.0226e-05,-1.405e-05,0.0,0 STARLINK-3889,1 52331U 22045A   24125.91976307 -.00001405  00000-0 -70226-4 0  9996,2 52331  53.2177 353.7912 0001262  93.8733 266.2404 15.08837452113928,6917.888,95.438,540.626,538.88,0.0
52331.0,STARLINK-3889,PAYLOAD,2024-05-05 21:55:13,15.08849991,0.0001186,53.2175,349.3346,95.5043,264.6084,3.3606e-05,2.47e-06,0.0,0 STARLINK-3889,1 52331U 22045A   24126.91335380  .00000247  00000-0  33606-4 0  9999,2 52331  53.2175 349.3346 0001186  95.5043 264.6084 15.08849991114070,6917.85,95.437,540.535,538.894,0.0
52331.0,STARLINK-3889,PAYLOAD,2024-05-06 07:27:33,15.08837604,0.0001226,53.2171,347.5505,91.6818,268.4315,0.00017384,2.48e-05,0.0,0 STARLINK-3889,1 52331U 22045A   24127.31079960  .00002480  00000-0  17384-3 0  9998,2 52331  53.2171 347.5505 0001226  91.6818 268.4315 15.08837604114139,6917.888,95.438,540.601,538.905,0.0
52331.0,STARLINK-3889,PAYLOAD,2024-05-06 21:46:01,15.08840366,0.0001171,53.2175,344.8746,90.9931,269.1195,0.00019878,2.877e-05,0.0,0 STARLINK-3889,1 52331U 22045A   24127.90695872  .00002877  00000-0  19878-3 0  9999,2 52331  53.2175 344.8746 0001171  90.9931 269.1195 15.08840366114220,6917.879,95.438,540.554,538.934,0.0
52331.0,STARLINK-3889,PAYLOAD,2024-05-07 13:39:52,15.08850284,9.01e-05,53.2154,341.8976,83.5551,276.5544,9.512e-05,1.227e-05,0.0,0 STARLINK-3889,1 52331U 22045A   24128.56935369  .00001227  00000-0  95120-4 0  9993,2 52331  53.2154 341.8976 0000901  83.5551 276.5544 15.08850284114326,6917.849,95.437,540.337,539.091,0.0
52331.0,STARLINK-3889,PAYLOAD,2024-05-07 20:01:23,15.0885927,9.42e-05,53.2154,340.7089,87.8907,272.2193,0.00016791,2.387e-05,0.0,0 STARLINK-3889,1 52331U 22045A   24128.83430371  .00002387  00000-0  16791-3 0  9990,2 52331  53.2154 340.7089 0000942  87.8907 272.2193 15.08859270114367,6917.821,95.436,540.338,539.035,0.0
52331.0,STARLINK-3889,PAYLOAD,2024-05-07 21:36:46,15.08861095,9.58e-05,53.215,340.412,89.1302,270.98,0.00023431,3.445e-05,0.0,0 STARLINK-3889,1 52331U 22045A   24128.90054332  .00003445  00000-0  23431-3 0  9992,2 52331  53.2150 340.4120 0000958  89.1302 270.9800 15.08861095114376,6917.816,95.436,540.344,539.018,0.0
52331.0,STARLINK-3889,PAYLOAD,2024-05-08 07:09:06,15.08844673,0.0001189,53.2157,338.6301,87.0705,273.0424,3.8053e-05,3.18e-06,0.0,0 STARLINK-3889,1 52331U 22045A   24129.29799152  .00000318  00000-0  38053-4 0  9994,2 52331  53.2157 338.6301 0001189  87.0705 273.0424 15.08844673114430,6917.866,95.437,540.554,538.909,0.0
52331.0,STARLINK-3889,PAYLOAD,2024-05-08 21:27:35,15.0883019,0.0001248,53.2165,335.9521,91.0706,269.0429,-0.00017583,-3.084e-05,0.0,0 STARLINK-3889,1 52331U 22045A   24129.89416142 -.00003084  00000-0 -17583-3 0  9994,2 52331  53.2165 335.9521 0001248  91.0706 269.0429 15.08830190114524,6917.91,95.438,540.639,538.912,0.0
52331.0,STARLINK-3889,PAYLOAD,2024-05-09 06:59:54,15.08833855,0.0001165,53.2156,334.167,88.0729,272.0397,5.5717e-06,-1.99e-06,0.0,0 STARLINK-3889,1 52331U 22045A   24130.29160263 -.00000199  00000-0  55717-5 0  9996,2 52331  53.2156 334.1670 0001165  88.0729 272.0397 15.08833855114584,6917.899,95.438,540.57,538.958,0.0
52331.0,STARLINK-3889,PAYLOAD,2024-05-09 19:42:59,15.08844883,0.0001184,53.2158,331.7866,91.4605,268.6523,0.00029445,4.402e-05,0.0,0 STARLINK-3889,1 52331U 22045A   24130.82152081  .00004402  00000-0  29445-3 0  9991,2 52331  53.2158 331.7866 0001184  91.4605 268.6523 15.08844883114662,6917.865,95.437,540.55,538.911,0.0
52331.0,STARLINK-3889,PAYLOAD,2024-05-10 13:12:16,15.08798104,6.38e-05,53.2161,328.5159,71.6822,288.4239,-0.00032143,-5.393e-05,0.0,0 STARLINK-3889,1 52331U 22045A   24131.55018921 -.00005393  00000-0 -32143-3 0  9997,2 52331  53.2161 328.5159 0000638  71.6822 288.4239 15.08798104114779,6918.008,95.44,540.315,539.432,0.0
52331.0,STARLINK-3889,PAYLOAD,2024-05-10 19:33:48,15.08847516,0.0001164,53.2159,327.3268,84.9799,275.1326,0.0017698,0.00027996,0.0,0 STARLINK-3889,1 52331U 22045A   24131.81514222  .00027996  00000-0  17698-2 0  9999,2 52331  53.2159 327.3268 0001164  84.9799 275.1326 15.08847516114816,6917.857,95.437,540.528,538.917,0.0
52331.0,STARLINK-3889,PAYLOAD,2024-05-11 13:02:59,15.08990619,0.000127,53.2191,324.0579,83.5743,276.5394,0.0051924,0.00083676,0.0,0 STARLINK-3889,1 52331U 22045A   24132.54373974  .00083676  00000-0  51924-2 0  9994,2 52331  53.2191 324.0579 0001270  83.5743 276.5394 15.08990619114928,6917.42,95.428,540.164,538.407,0.0
52331.0,STARLINK-3889,PAYLOAD,2024-05-11 19:24:32,15.08838131,0.0001384,53.2174,322.8672,93.7749,266.3402,-0.0037899,-0.00060098,0.0,0 STARLINK-3889,1 52331U 22045A   24132.80870858 -.00060098  00000-0 -37899-2 0  9996,2 52331  53.2174 322.8672 0001384  93.7749 266.3402 15.08838131114965,6917.886,95.438,540.709,538.794,0.0
52331.0,STARLINK-3889,PAYLOAD,2024-05-12 12:53:52,15.08689672,0.0001477,53.2182,319.5971,86.3395,273.7766,0.00026243,3.874e-05,0.0,0 STARLINK-3889,1 52331U 22045A   24133.53741620  .00003874  00000-0  26243-3 0  9990,2 52331  53.2182 319.5971 0001477  86.3395 273.7766 15.08689672115079,6918.34,95.447,541.227,539.183,0.0
52331.0,STARLINK-3889,PAYLOAD,2024-05-12 19:15:25,15.08791812,0.0001155,53.2175,318.4078,85.5627,274.5497,0.0040115,0.00064051,0.0,0 STARLINK-3889,1 52331U 22045A   24133.80237512  .00064051  00000-0  40115-2 0  9997,2 52331  53.2175 318.4078 0001155  85.5627 274.5497 15.08791812115114,6918.028,95.441,540.692,539.094,0.0
52331.0,STARLINK-3889,PAYLOAD,2024-05-13 12:44:39,15.08873015,0.0001094,53.2172,315.1368,84.7546,275.3571,0.0011384,0.00017892,0.0,0 STARLINK-3889,1 52331U 22045A   24134.53100912  .00017892  00000-0  11384-2 0  9998,2 52331  53.2172 315.1368 0001094  84.7546 275.3571 15.08873015115220,6917.779,95.435,540.401,538.888,0.0
52331.0,STARLINK-3889,PAYLOAD,2024-05-13 19:06:11,15.08878376,0.0001079,53.2171,313.9475,80.8772,279.2342,0.00093807,0.00014689,0.0,0 STARLINK-3889,1 52331U 22045A   24134.79596277  .00014689  00000-0  93807-3 0  9991,2 52331  53.2171 313.9475 0001079  80.8772 279.2342 15.08878376115263,6917.763,95.435,540.375,538.882,0.0
52331.0,STARLINK-3889,PAYLOAD,2024-05-13 22:16:57,15.08881617,0.0001047,53.2171,313.3521,80.8247,279.2863,0.0009909,0.00015535,0.0,0 STARLINK-3889,1 52331U 22045A   24134.92843924  .00015535  00000-0  99090-3 0  9991,2 52331  53.2171 313.3521 0001047  80.8247 279.2863 15.08881617115283,6917.753,95.435,540.342,538.894,0.0
52331.0,STARLINK-3889,PAYLOAD,2024-05-14 11:00:01,15.08878476,0.0001241,53.2158,310.9726,69.6266,290.4859,0.00034131,5.154e-05,0.0,0 STARLINK-3889,1 52331U 22045A   24135.45834759  .00005154  00000-0  34131-3 0  9997,2 52331  53.2158 310.9726 0001241  69.6266 290.4859 15.08878476115368,6917.763,95.435,540.486,538.769,0.0
